#dP2018  2  4  0  0  0.00000000      96 __u+U ITR00 FIT  IAC
## 1987      0.00000000   900.00000000 58153 0.0000000000000
+   88   C01C02C03C04C05C06C07C08C09C10C11C12C13C14E01E02E03
+        E04E05E07E08E09E11E12E14E18E19E24E26E30G01G02G03G04
+        G05G06G07G08G09G10G11G12G13G14G15G16G17G19G20G21G22
+        G23G24G25G26G27G28G29G30G31G32J01J02J03R01R02R03R04
+        R05R06R07R08R09R10R11R13R14R15R16R17R18R19R20R21R22
+        R23R24R26  0  0  0  0  0  0  0  0  0  0  0  0  0  0
++         0  0  0  0  0  0  0  0  0  0  0  0  0  0  0  0  0
++         0  0  0  0  0  0  0  0  0  0  0  0  0  0  0  0  0
++         0  0  0  0  0  0  0  0  0  0  0  0  0  0  0  0  0
++         0  0  0  0  0  0  0  0  0  0  0  0  0  0  0  0  0
++         0  0  0  0  0  0  0  0  0  0  0  0  0  0  0  0  0
++         0  0  0  0  0  0  0  0  0  0  0  0  0  0  0  0  0
%c M  cc GPS ccc cccc cccc cccc cccc ccccc ccccc ccccc ccccc
%c cc cc ccc ccc cccc cccc cccc cccc ccccc ccccc ccccc ccccc
%f  0.0000000  0.000000000  0.00000000000  0.000000000000000
%f  0.0000000  0.000000000  0.00000000000  0.000000000000000
%i    0    0    0    0      0      0      0      0         0
%i    0    0    0    0      0      0      0      0         0
/*                                                          
/*   RSA / INFORMATION & ANALYSIS CENTER (IAC) OF MCC       
/*   ULTRA-RAPID DETERMINATION                              
/* PCV:IGS14_1984 OL/AL:FES2004  NONE     YN ORB:CoN CLK:CoN
*  2018 02 04 20 30  0.00000000
PC01 -32285.922300  27098.438426   -489.701614    326.245252
PC02   4423.826398  41924.454070   1173.799315   -203.288756
PC03 -14742.351467  39529.253380    466.879853   -153.468866
PC04 -39602.583480  14419.647833   -194.872117   -358.077167
PC05  21952.710610  35995.533663   1504.221354   -141.115354
PC06 -17250.582111  38305.170644   5494.469172   -679.501126
PC07  -9364.703943  25400.518442 -32120.577180   -299.641625
PC08 -22133.480447  22445.935568  27982.942263    156.188567
PC09  -8795.017353  40386.927106  -8977.917691   -435.153802
PC10   4762.101849  32769.713784 -25793.139389      6.973526
PC11  -7390.705208 -13651.098384 -23130.952248   -379.073352
PC12  11951.610532 -20771.056949 -14315.733123    377.539729
PC13  -6773.226747  24753.771465  33433.203629   -186.307038
PC14  -9081.265315 -24955.407640   8524.588096    186.654727
PE01   1834.716198 -18672.168225  22893.552963   -269.141849
PE02  -1800.953780  18693.441986 -22882.889298      3.755627
PE03  -8706.113277  28158.830959   2675.188539      4.595901
PE04  -4990.179149 -25010.708979  15019.979477     30.473046
PE05 -17344.823964  14823.161987  18855.799988    328.304010
PE07  15815.127073   7165.380415 -23970.710439     89.923685
PE08   5135.901671  24956.643147 -15059.651796   6648.095825
PE09 -15722.875982  -7063.140478  24066.930771   6884.101340
PE11 -25716.419754  -2289.142149 -14488.803291   1850.664699
PE12  -8996.957161 -14354.767473 -24262.131197   3435.028365
PE14 -19053.907281  21268.361874    390.756926   6636.435040
PE18   6738.932719 -24262.715832 -14284.198020   6452.094453
PE19   9740.580999 -27578.795003  -4527.430356     19.091118
PE24 -24142.418333 -14016.789241  -9817.331864   6879.758431
PE26  27344.490349 -10789.362260  -3485.364756   6307.346411
PE30  15843.226478  23260.435632  -9201.750881   6103.597261
PG01 -17273.030994 -13448.736404 -15376.846548    -27.055819
PG02  -6899.012932  14770.277923  21478.566206    209.344497
PG03 -13113.586865 -22335.083463   5980.926341      2.857098
PG04  11302.335609 -10695.883232  21240.563372     35.728985
PG05     44.110195  23383.970704  12295.636131    -15.139370
PG06 -19342.388186   8312.192510  16234.096647    414.778516
PG07 -26105.219791  -5863.910967   1824.059343    241.562563
PG08   -207.648355 -19583.878624 -17821.766784    -90.023244
PG09 -17352.284841   -986.665829  20049.349190    498.658719
PG10  14186.892289  -5438.496602 -21753.926063    155.726191
PG11 -13273.812979 -12584.289222 -19782.289010   -735.617532
PG12  10420.372040  24203.999233   3929.544180    352.004773
PG13  -9072.914705  21394.682893 -12988.787802    -95.535655
PG14  18486.521098 -18914.598375   -738.780543    -93.455826
PG15   3216.605856  19267.513396 -18034.209839   -357.141833
PG16   1414.095099 -23289.152813  12138.036679     32.886345
PG17 -20497.248711  13720.109899  -9290.379949   -125.734940
PG19 -19833.138453  17662.921541  -2742.289515   -459.234421
PG20  14539.440418  21942.090901  -3881.853344    500.091700
PG21  26381.628266   3185.772970    433.248492   -434.105162
PG22 -10214.187563 -24474.930858  -1017.057004   -280.447875
PG23  -9846.623903 -12611.040247  21419.233786   -219.003731
PG24  14564.643906  14302.225429 -17249.976675    -45.643761
PG25  16368.247818  14910.417206  14678.951509   -533.487484
PG26   8074.097040 -16278.601578  19326.567280   -262.278891
PG27  10902.072583 -22638.877639  -8270.716583    365.855897
PG28 -14599.429142    775.774399 -21544.846597    685.913213
PG29  14380.588632   5582.763581  21609.604265    501.206401
PG30 -25670.777347   -185.181110  -7101.079261    106.516713
PG31  18932.640657  -8389.644722  16909.989440    143.964988
PG32  20042.567361 -14545.663374  -9478.743256   -532.795097
PJ01 -25612.599904  24881.813680  27509.358804   -121.149070
PJ02 -27116.074205  15009.563315 -24256.905545     -0.049475
PJ03 -24748.819215  33069.644231  -3719.546183     -0.098576
PR01   5763.456249  20332.154529 -14277.009403     21.627898
PR02  10830.187249   1385.181980 -23022.106486    293.621971
PR03   9129.845678 -17007.085282 -16620.127642    123.260522
PR04   1790.836965 -25437.355210   -112.743909    248.671885
PR05  -6477.097611 -19148.347291  15551.057956   -242.170723
PR06 -11112.635367   -180.448857  22944.430347    126.438209
PR07  -9059.553308  17357.291602  16397.631592    -29.250146
PR08  -2189.523016  25402.194379    853.166208    -27.022357
PR09 -21443.036570  -8485.444137 -10956.332428     47.486285
PR10 -11681.251114   4335.895876 -22291.235976     17.515876
PR11   4909.691603  14988.497583 -20022.254977    -21.051338
PR13  21336.242428   7668.053280  11671.005817     -7.162007
PR14  11986.409069  -4395.275225  22092.796586     24.437624
PR15  -1639.266036 -13244.432143  21720.731715     -6.006788
PR16 -18437.307549 -16136.282591   6855.339228     84.852689
PR17  21708.212847 -12669.684525  -4430.761892    106.585137
PR18   9666.612429 -14199.521745 -18809.712254    183.647302
PR19  -7909.198201  -7824.975023 -22946.190299    -43.590325
PR20 -21816.374390   3590.209869 -12753.167190   -325.974887
PR21 -21563.153582  12765.779666   4714.424749     21.695188
PR22  -8122.772301  13889.274170  19850.324310    -16.070095
PR23  11217.245657   5828.467220  22154.185111    134.337332
PR24  21965.554968  -4333.079730  12191.227475   -162.008619
PR26 -21651.710717   3863.980725 -12884.833145     -2.485778
EOF
